M2 PATHFINDER           
1 45727U 20037E   26198.50302183  .00000634  00000+0  49423-4 0  9993
2 45727  97.8140  30.0778 0012700  55.2846 304.9574 15.04794835330050
NETSAT-4                
1 46504U 20068U   26198.96639181  .00010356  00000+0  22303-3 0  9991
2 46504  97.8604 209.7038 0005083 183.5577 176.5635 15.44815149320523
NETSAT-3                
1 46505U 20068V   26198.93101593  .00010293  00000+0  23047-3 0  9996
2 46505  97.8657 207.8446 0004185 199.2540 160.8550 15.43666595320429
NETSAT-1                
1 46506U 20068W   26198.96978133  .00006870  00000+0  20314-3 0  9992
2 46506  97.8757 201.8469 0002601 246.1321 113.9649 15.35283657320029
NETSAT-2                
1 46507U 20068X   26198.96095149  .00014077  00000+0  27837-3 0  9995
2 46507  97.8616 209.7117 0002559 196.7743 163.3421 15.47240985320499
GREENCUBE (IO-117)      
1 53109U 22080E   26198.22212605 -.00000003  00000+0  00000+0 0  9998
2 53109  70.1407 287.8015 0009072 282.9900  76.9746  6.42583336 93997
SITRO-AIS 5 (KATYS)     
1 57176U 23091L   26198.94349437  .00006191  00000+0  21491-3 0  9996
2 57176  97.5040 263.1472 0010374   2.6754 357.4540 15.30099768169043
SITRO-AIS 6 (CHIRKIN)   
1 57192U 23091AC  26198.86343966  .00005182  00000+0  20132-3 0  9996
2 57192  97.5048 262.0200 0010896   7.3028 352.8367 15.26465575168965
SITRO-AIS 8 (ANOKHIN)   
1 57193U 23091AD  26198.90550958  .00007195  00000+0  22870-3 0  9990
2 57193  97.5035 264.8255 0009224 358.0830   2.0375 15.32899830169159
SITRO-AIS 7 (FARTUSHNIY)
1 57194U 23091AE  26198.93857031  .00005158  00000+0  20238-3 0  9999
2 57194  97.5044 261.9041 0010848   8.2854 351.8561 15.26139707168968
SITRO-AIS 10 (BURDAEV)  
1 57199U 23091AK  26198.93467100  .00011469  00000+0  29239-3 0  9990
2 57199  97.5062 270.2346 0004639 329.0440  31.0531 15.39690277169491
SITRO-AIS 9 (SHCHUKIN)  
1 57201U 23091AM  26198.90611152  .00010705  00000+0  27773-3 0  9992
2 57201  97.5061 269.9105 0004915 329.8372  30.2590 15.39173225169474
SITRO-AIS 12 (SMIRENNIY)
1 57204U 23091AQ  26198.95587667  .00010738  00000+0  27591-3 0  9997
2 57204  97.5073 270.4482 0004469 321.5661  38.5265 15.39468934169507
SITRO-AIS 11 (SHEFFER)  
1 57208U 23091AU  26198.96059940  .00011439  00000+0  28950-3 0  9999
2 57208  97.5071 270.7194 0004410 320.9764  39.1163 15.39915306169521
SITRO-AIS 25            
1 59066U 24039R   26198.92655956  .00001687  00000+0  13335-3 0  9996
2 59066  95.3890 256.2157 0142997 219.8648 139.2007 14.93652405129317
SITRO-AIS 26            
1 59067U 24039S   26198.93217166  .00001452  00000+0  11568-3 0  9991
2 59067  95.3891 256.1108 0143325 220.4629 138.5870 14.93443463129308
SITRO-AIS 27            
1 59068U 24039T   26198.89374781  .00001633  00000+0  12860-3 0  9991
2 59068  95.3896 256.3705 0142432 219.1065 139.9800 14.93867037129323
SITRO-AIS 28            
1 59071U 24039U   26198.93748432  .00001421  00000+0  11219-3 0  9990
2 59071  95.3894 256.4495 0142299 218.8026 140.2916 14.93902039129332
GRBBETA                 
1 60237U 24128C   26198.88026798  .00001720  00000+0  12783-3 0  9992
2 60237  61.9888 108.5638 0036744 141.2952 219.0784 15.06818842110892
OOV-CUBE (TUBSAT-30)    
1 60240U 24128F   26198.92842390  .00000929  00000+0  83519-4 0  9991
2 60240  61.9941 118.3707 0040777 140.6184 219.7884 15.02880169110731
ROBUSTA-3A (MEDITERRAN*)
1 60243U 24128J   26198.88992525  .00003725  00000+0  22532-3 0  9999
2 60243  61.9863  99.6408 0037798 134.1750 226.2463 15.12008486111060
LASARSAT                
1 62391U 24247Q   26198.70698230  .00020116  00000+0  37983-3 0  9993
2 62391  44.9738  90.4716 0007821 182.2706 177.8150 15.48150140 88047
CROCUBE                 
1 62394U 24247T   26198.92256506  .00024594  00000+0  42846-3 0  9994
2 62394  44.9717  86.0526 0007952 189.7877 170.2860 15.50331546 88110
FORESAIL-1 PRIME        
1 66778U 25276DS  26198.17054758  .00002254  00000+0  11112-3 0  9990
2 66778  97.4189 270.8955 0002737  40.2765 319.8672 15.18947700 34952
KNACKSAT-2              
1 67683U 98067XZ  26198.24140567  .00034112  00000+0  37883-3 0  9997
2 67683  51.6276 143.0009 0007952 335.1166  24.9444 15.62548905 24978
